{"type": "FeatureCollection", "features": [ {"type": "Feature", "properties": {"norad_id": 41826, "name": "FENGYUN 1C DEB", "group": "fengyun-1c-debris", "lat": 45.35519904488197, "lon": 50.00396015113041, "alt_km": 846.2079457759082, "timestamp": "2025-12-19T04:59:48.596259+00:00", "meta": {"OBJECT_NAME": "FENGYUN 1C DEB", "OBJECT_ID": "1999-025EYD", "EPOCH": "2025-12-17T15:40:24.664800", "MEAN_MOTION": 14.23780201, "ECCENTRICITY": 0.00560806, "INCLINATION": 98.7338, "RA_OF_ASC_NODE": 57.4138, "ARG_OF_PERICENTER": 209.4871, "MEAN_ANOMALY": 150.3141, "EPHEMERIS_TYPE": 0, "CLASSIFICATION_TYPE": "U", "NORAD_CAT_ID": 41826, "ELEMENT_SET_NO": 999, "REV_AT_EPOCH": 47430, "BSTAR": 0.0011247822, "MEAN_MOTION_DOT": 2.57e-05, "MEAN_MOTION_DDOT": 0}, "tle": {"line1": "1 41826U 99025EYD 25351.65306325  .00002570  00000+0  11248-2 0  9993", "line2": "2 41826  98.7338  57.4138 0056080 209.4871 150.3141 14.23780201474300"}}, "geometry": {"type": "Point", "coordinates": [50.00396015113041, 45.35519904488197]}}, {"type": "Feature", "properties": {"norad_id": 41827, "name": "FENGYUN 1C DEB", "group": "fengyun-1c-debris", "lat": -22.273474271998737, "lon": 66.00748166249647, "alt_km": 845.9130938914777, "timestamp": "2025-12-19T04:59:48.596269+00:00", "meta": {"OBJECT_NAME": "FENGYUN 1C DEB", "OBJECT_ID": "1999-025EYE", "EPOCH": "2025-12-18T15:37:30.393408", "MEAN_MOTION": 14.25317155, "ECCENTRICITY": 0.00585964, "INCLINATION": 98.7438, "RA_OF_ASC_NODE": 61.8381, "ARG_OF_PERICENTER": 196.9813, "MEAN_ANOMALY": 162.9406, "EPHEMERIS_TYPE": 0, "CLASSIFICATION_TYPE": "U", "NORAD_CAT_ID": 41827, "ELEMENT_SET_NO": 999, "REV_AT_EPOCH": 47415, "BSTAR": 0.0012677689, "MEAN_MOTION_DOT": 2.996e-05, "MEAN_MOTION_DDOT": 0}, "tle": {"line1": "1 41827U 99025EYE 25352.65104622  .00002996  00000+0  12678-2 0  9991", "line2": "2 41827  98.7438  61.8381 0058596 196.9813 162.9406 14.25317155474153"}}, "geometry": {"type": "Point", "coordinates": [66.00748166249647, -22.273474271998737]}}, {"type": "Feature", "properties": {"norad_id": 41828, "name": "FENGYUN 1C DEB", "group": "fengyun-1c-debris", "lat": 50.51360026722275, "lon": -47.353944552440765, "alt_km": 690.7402124873724, "timestamp": "2025-12-19T04:59:48.596279+00:00", "meta": {"OBJECT_NAME": "FENGYUN 1C DEB", "OBJECT_ID": "1999-025EYF", "EPOCH": "2025-12-17T20:58:51.992832", "MEAN_MOTION": 14.51878436, "ECCENTRICITY": 0.003844, "INCLINATION": 98.9227, "RA_OF_ASC_NODE": 120.2378, "ARG_OF_PERICENTER": 161.0718, "MEAN_ANOMALY": 199.1915, "EPHEMERIS_TYPE": 0, "CLASSIFICATION_TYPE": "U", "NORAD_CAT_ID": 41828, "ELEMENT_SET_NO": 999, "REV_AT_EPOCH": 47538, "BSTAR": 0.0032145706, "MEAN_MOTION_DOT": 0.0001305, "MEAN_MOTION_DDOT": 0}, "tle": {"line1": "1 41828U 99025EYF 25351.87421288  .00013050  00000+0  32146-2 0  9990", "line2": "2 41828  98.9227 120.2378 0038440 161.0718 199.1915 14.51878436475387"}}, "geometry": {"type": "Point", "coordinates": [-47.353944552440765, 50.51360026722275]}}, {"type": "Feature", "properties": {"norad_id": 41829, "name": "FENGYUN 1C DEB", "group": "fengyun-1c-debris", "lat": 59.06175010111457, "lon": -102.72069702445263, "alt_km": 795.3916569815856, "timestamp": "2025-12-19T04:59:48.596289+00:00", "meta": {"OBJECT_NAME": "FENGYUN 1C DEB", "OBJECT_ID": "1999-025EYG", "EPOCH": "2025-12-17T15:21:47.543904", "MEAN_MOTION": 14.25155142, "ECCENTRICITY": 0.00567063, "INCLINATION": 98.7448, "RA_OF_ASC_NODE": 60.837, "ARG_OF_PERICENTER": 204.9991, "MEAN_ANOMALY": 154.844, "EPHEMERIS_TYPE": 0, "CLASSIFICATION_TYPE": "U", "NORAD_CAT_ID": 41829, "ELEMENT_SET_NO": 999, "REV_AT_EPOCH": 47377, "BSTAR": 0.0011834184, "MEAN_MOTION_DOT": 2.781e-05, "MEAN_MOTION_DDOT": 0}, "tle": {"line1": "1 41829U 99025EYG 25351.64013361  .00002781  00000+0  11834-2 0  9995", "line2": "2 41829  98.7448  60.8370 0056706 204.9991 154.8440 14.25155142473772"}}, "geometry": {"type": "Point", "coordinates": [-102.72069702445263, 59.06175010111457]}}, {"type": "Feature", "properties": {"norad_id": 41830, "name": "FENGYUN 1C DEB", "group": "fengyun-1c-debris", "lat": -28.549615766233533, "lon": 69.99704917201447, "alt_km": 835.9883588640723, "timestamp": "2025-12-19T04:59:48.596299+00:00", "meta": {"OBJECT_NAME": "FENGYUN 1C DEB", "OBJECT_ID": "1999-025EYH", "EPOCH": "2025-12-17T16:05:53.922336", "MEAN_MOTION": 14.26488345, "ECCENTRICITY": 0.00548744, "INCLINATION": 98.7533, "RA_OF_ASC_NODE": 63.6517, "ARG_OF_PERICENTER": 202.7243, "MEAN_ANOMALY": 157.1507, "EPHEMERIS_TYPE": 0, "CLASSIFICATION_TYPE": "U", "NORAD_CAT_ID": 41830, "ELEMENT_SET_NO": 999, "REV_AT_EPOCH": 47344, "BSTAR": 0.001313768, "MEAN_MOTION_DOT": 3.172e-05, "MEAN_MOTION_DDOT": 0}, "tle": {"line1": "1 41830U 99025EYH 25351.67076299  .00003172  00000+0  13138-2 0  9993", "line2": "2 41830  98.7533  63.6517 0054874 202.7243 157.1507 14.26488345473442"}}, "geometry": {"type": "Point", "coordinates": [69.99704917201447, -28.549615766233533]}}, {"type": "Feature", "properties": {"norad_id": 41831, "name": "FENGYUN 1C DEB", "group": "fengyun-1c-debris", "lat": 66.06098742632598, "lon": -99.70959293118305, "alt_km": 803.3885351315776, "timestamp": "2025-12-19T04:59:48.596309+00:00", "meta": {"OBJECT_NAME": "FENGYUN 1C DEB", "OBJECT_ID": "1999-025EYJ", "EPOCH": "2025-12-18T03:10:57.421920", "MEAN_MOTION": 14.24603675, "ECCENTRICITY": 0.00565339, "INCLINATION": 98.7347, "RA_OF_ASC_NODE": 58.9599, "ARG_OF_PERICENTER": 205.855, "MEAN_ANOMALY": 153.9801, "EPHEMERIS_TYPE": 0, "CLASSIFICATION_TYPE": "U", "NORAD_CAT_ID": 41831, "ELEMENT_SET_NO": 999, "REV_AT_EPOCH": 47336, "BSTAR": 0.0012321391, "MEAN_MOTION_DOT": 2.866e-05, "MEAN_MOTION_DDOT": 0}, "tle": {"line1": "1 41831U 99025EYJ 25352.13260905  .00002866  00000+0  12321-2 0  9997", "line2": "2 41831  98.7347  58.9599 0056533 205.8550 153.9801 14.24603675473367"}}, "geometry": {"type": "Point", "coordinates": [-99.70959293118305, 66.06098742632598]}}, {"type": "Feature", "properties": {"norad_id": 41832, "name": "FENGYUN 1C DEB", "group": "fengyun-1c-debris", "lat": 20.127739833195477, "lon": -119.58276424679467, "alt_km": 783.7009745238656, "timestamp": "2025-12-19T04:59:48.596319+00:00", "meta": {"OBJECT_NAME": "FENGYUN 1C DEB", "OBJECT_ID": "1999-025EYK", "EPOCH": "2025-12-18T16:26:40.352928", "MEAN_MOTION": 14.24277668, "ECCENTRICITY": 0.00558202, "INCLINATION": 98.7294, "RA_OF_ASC_NODE": 56.6697, "ARG_OF_PERICENTER": 208.6174, "MEAN_ANOMALY": 151.1938, "EPHEMERIS_TYPE": 0, "CLASSIFICATION_TYPE": "U", "NORAD_CAT_ID": 41832, "ELEMENT_SET_NO": 999, "REV_AT_EPOCH": 47435, "BSTAR": 0.0012657633, "MEAN_MOTION_DOT": 2.926e-05, "MEAN_MOTION_DDOT": 0}, "tle": {"line1": "1 41832U 99025EYK 25352.68518927  .00002926  00000+0  12658-2 0  9998", "line2": "2 41832  98.7294  56.6697 0055820 208.6174 151.1938 14.24277668474354"}}, "geometry": {"type": "Point", "coordinates": [-119.58276424679467, 20.127739833195477]}}, {"type": "Feature", "properties": {"norad_id": 41833, "name": "FENGYUN 1C DEB", "group": "fengyun-1c-debris", "lat": 43.54038812775338, "lon": 54.34774677465673, "alt_km": 838.9873197953912, "timestamp": "2025-12-19T04:59:48.596329+00:00", "meta": {"OBJECT_NAME": "FENGYUN 1C DEB", "OBJECT_ID": "1999-025EYL", "EPOCH": "2025-12-18T16:59:56.331168", "MEAN_MOTION": 14.25856819, "ECCENTRICITY": 0.00547367, "INCLINATION": 98.7484, "RA_OF_ASC_NODE": 62.2633, "ARG_OF_PERICENTER": 206.3062, "MEAN_ANOMALY": 153.5336, "EPHEMERIS_TYPE": 0, "CLASSIFICATION_TYPE": "U", "NORAD_CAT_ID": 41833, "ELEMENT_SET_NO": 999, "REV_AT_EPOCH": 47449, "BSTAR": 0.0013259425, "MEAN_MOTION_DOT": 3.162e-05, "MEAN_MOTION_DDOT": 0}, "tle": {"line1": "1 41833U 99025EYL 25352.70829087  .00003162  00000+0  13259-2 0  9995", "line2": "2 41833  98.7484  62.2633 0054736 206.3062 153.5336 14.25856819474490"}}, "geometry": {"type": "Point", "coordinates": [54.34774677465673, 43.54038812775338]}}, {"type": "Feature", "properties": {"norad_id": 43213, "name": "FENGYUN 1C DEB", "group": "fengyun-1c-debris", "lat": -22.273916799738235, "lon": -126.04212611578947, "alt_km": 778.0124494168331, "timestamp": "2025-12-19T04:59:48.596339+00:00", "meta": {"OBJECT_NAME": "FENGYUN 1C DEB", "OBJECT_ID": "1999-025EYM", "EPOCH": "2025-12-18T14:33:19.611072", "MEAN_MOTION": 14.23893333, "ECCENTRICITY": 0.00552662, "INCLINATION": 98.7338, "RA_OF_ASC_NODE": 56.9703, "ARG_OF_PERICENTER": 210.4712, "MEAN_ANOMALY": 149.3252, "EPHEMERIS_TYPE": 0, "CLASSIFICATION_TYPE": "U", "NORAD_CAT_ID": 43213, "ELEMENT_SET_NO": 999, "REV_AT_EPOCH": 40456, "BSTAR": 0.0011936049, "MEAN_MOTION_DOT": 2.735e-05, "MEAN_MOTION_DDOT": 0}, "tle": {"line1": "1 43213U 99025EYM 25352.60647698  .00002735  00000+0  11936-2 0  9999", "line2": "2 43213  98.7338  56.9703 0055266 210.4712 149.3252 14.23893333404568"}}, "geometry": {"type": "Point", "coordinates": [-126.04212611578947, -22.273916799738235]}}, {"type": "Feature", "properties": {"norad_id": 43214, "name": "FENGYUN 1C DEB", "group": "fengyun-1c-debris", "lat": 45.45191671202772, "lon": -113.13263712314215, "alt_km": 796.4153541748119, "timestamp": "2025-12-19T04:59:48.596349+00:00", "meta": {"OBJECT_NAME": "FENGYUN 1C DEB", "OBJECT_ID": "1999-025EYN", "EPOCH": "2025-12-18T03:04:26.942304", "MEAN_MOTION": 14.24166763, "ECCENTRICITY": 0.00557639, "INCLINATION": 98.7359, "RA_OF_ASC_NODE": 56.8072, "ARG_OF_PERICENTER": 211.4547, "MEAN_ANOMALY": 148.3293, "EPHEMERIS_TYPE": 0, "CLASSIFICATION_TYPE": "U", "NORAD_CAT_ID": 43214, "ELEMENT_SET_NO": 999, "REV_AT_EPOCH": 40480, "BSTAR": 0.0012486468, "MEAN_MOTION_DOT": 2.879e-05, "MEAN_MOTION_DDOT": 0}, "tle": {"line1": "1 43214U 99025EYN 25352.12808961  .00002879  00000+0  12486-2 0  9999", "line2": "2 43214  98.7359  56.8072 0055763 211.4547 148.3293 14.24166763404801"}}, "geometry": {"type": "Point", "coordinates": [-113.13263712314215, 45.45191671202772]}}]}